GLOBALSTAR M035         
1 25851U 99037A   25183.85671419 -.00000110  00000+0 -17401-2 0  9997
2 25851  51.9976  20.0212 0013971  10.3541   2.6442 11.04538598 97998
GLOBALSTAR M032         
1 25852U 99037B   25183.78503216 -.00000057  00000+0  31341-3 0  9998
2 25852  51.9911 204.3031 0012268 193.2255 166.8224 11.19061922136538
GLOBALSTAR M051         
1 25853U 99037C   25184.50706502 -.00000083  00000+0 -26243-3 0  9998
2 25853  51.9821   1.5227 0000391 153.3686 206.7145 11.42204716134273
GLOBALSTAR M030         
1 25854U 99037D   25184.26599950 -.00000057  00000+0  38739-3 0  9992
2 25854  51.9843 167.1871 0003045  69.9375 290.1769 11.55108757152000
GLOBALSTAR M048         
1 25872U 99041A   25183.61995154 -.00000059  00000+0  29118-3 0  9994
2 25872  51.9389 299.2946 0013562 209.1436 163.9849 11.33857648126739
GLOBALSTAR M026         
1 25873U 99041B   25183.25104601  .00000008  00000+0  26450-2 0  9992
2 25873  51.9988 139.1721 0002299 306.3230 194.6380 11.06840723150155
GLOBALSTAR M043         
1 25874U 99041C   25183.88333616 -.00000060  00000+0  23813-3 0  9992
2 25874  51.9422  46.9376 0013495 341.9887  31.5601 11.25695775124649
GLOBALSTAR M028         
1 25875U 99041D   25183.57853628 -.00000074  00000+0  17518-3 0  9999
2 25875  51.9605 147.1697 0063369 104.6049 256.1849 12.50584357192109
